C/2020 S8 (Lemmon),e,108.5269,24.0630,160.3147,271.8291,0.0002199,0.99130671,0.0000,04/10.8916/2021,2000,g 12.5,4.0
# From MPEC 2022-PB4
C/2020 T2 (Palomar),e,27.8600,83.0096,150.4700,324.7071,0.0001684,0.99366796,0.0000,07/11.2052/2021,2000,g 11.0,3.2
# From MPEC 2021-N06
P/2020 T3 (PANSTARRS),e,7.2968,73.9984,357.0342,3.517176,0.1494215,0.59185199,85.0858,08/13.0/2022,2000,g 18.0,3.2
# From MPEC 2021-N06
C/2020 T4 (PANSTARRS),h,07/05.2672/2021,83.8253,50.6142,79.6102,1.000105,2.191849,2000,13.0,3.2
# From MPEC 2021-BE3
C/2020 T5 (Lemmon),e,66.5763,237.8531,90.3179,801.2830,0.0000435,0.99764122,0.0000,10/09.5419/2020,2000,g 16.0,4.0
# From MPEC 2021-N06
P/2020 U2 (PANSTARRS),e,6.4207,342.8970,84.6329,3.778011,0.1342175,0.51089555,79.8843,08/13.0/2022,2000,g 18.0,4.0
# From MPEC 2021-W31
C/2020 U3 (Rankin),e,30.1663,282.6667,124.2957,65.97721,0.0018391,0.96549771,1.0169,08/13.0/2022,2000,g 15.0,4.0
# From MPEC 2022-PB4
C/2020 U4 (PANSTARRS),h,04/08.1821/2022,167.0360,120.0168,69.5590,1.001418,5.353822,2000,7.0,4.0
# From MPEC 2022-PB4
C/2020 U5 (PANSTARRS),e,97.2699,107.3332,75.4223,4449,0.0000033,0.99915584,0.0000,04/27.9167/2022,2000,g  8.0,4.0
# From MPEC 2022-PB4
C/2020 V2 (ZTF),h,05/08.5385/2023,131.6110,212.3703,162.4197,1.000988,2.228006,2000,4.9,4.0
# From MPEC 2021-N06
P/2020 V3 (PANSTARRS),e,23.0322,198.2541,249.3608,8.377175,0.0406497,0.25629419,22.3552,08/13.0/2022,2000,g  8.3,4.0
# From MPEC 2022-K19
P/2020 V4 (Rankin),e,14.2435,203.4876,256.9995,9.358159,0.0344285,0.44985009,13.4674,08/13.0/2022,2000,g  9.0,4.0
# From MPEC 2021-BE3
P/2020 W1 (Rankin),e,10.7899,124.2676,265.0031,7.208944,0.0509210,0.26616340,43.6902,08/13.0/2022,2000,g 10.0,4.0
# From MPEC 2021-BE3
C/2020 W5 (Lemmon),h,11/30.0571/2020,88.5865,75.4883,24.4824,1.000662,3.364491,2000,15.0,4.0
# From MPEC 2022-L66
P/2020 WJ5 (Lemmon),e,22.2945,177.8109,338.2841,6.016737,0.0667825,0.17125511,27.1824,08/13.0/2022,2000,g  8.5,4.0
# From MPEC 2021-P47
P/2020 X1 (ATLAS),e,31.6927,56.0053,323.3497,4.528821,0.1022649,0.36556012,77.0401,08/13.0/2022,2000,g 13.0,4.0
# From MPEC 2021-U31
C/2020 X2 (ATLAS),e,18.1867,105.4421,347.3442,16.42701,0.0148036,0.76700156,9.4022,08/13.0/2022,2000,g 10.6,4.0
# From MPEC 2021-S45
C/2020 X4 (Leonard),e,80.6105,161.8840,140.3025,41.08940,0.0037420,0.87294894,2.3749,08/13.0/2022,2000,g  9.0,4.0
# From MPEC 2022-M88
C/2020 Y2 (ATLAS),e,101.2978,26.5150,266.1048,1061,0.0000285,0.99704729,0.0000,06/17.6946/2022,2000,g  6.5,4.0
# From MPEC 2021-R75
C/2020 Y3 (ATLAS),e,83.1011,191.4409,341.9978,145.7954,0.0005599,0.98629557,0.0000,12/03.3909/2020,2000,g 13.5,4.0
# From MPEC 2022-H04
C/2021 A1 (Leonard),e,132.6886,255.8964,225.0937,24067,0.0000003,0.99997443,0.0000,01/03.2917/2022,2000,g  8.5,4.0
# From MPEC 2022-F14
C/2021 A2 (NEOWISE),e,106.9790,125.2249,338.8087,241.0486,0.0002634,0.99414088,0.0000,01/22.5478/2021,2000,g 13.5,4.0
# From MPEC 2022-ED3
C/2021 A4 (NEOWISE),e,111.5337,307.1127,204.7049,42.68409,0.0035343,0.97313423,0.0000,03/19.9132/2021,2000,g 16.0,4.0
# From MPEC 2021-BE3
P/2021 A5 (PANSTARRS),e,18.1865,328.7679,61.2577,3.047425,0.1852698,0.13987530,118.3475,08/13.0/2022,2000,g 15.0,4.0
# From MPEC 2022-K19
C/2021 A6 (PANSTARRS),e,75.6114,164.0791,351.6699,10126,0.0000010,0.99921707,0.0000,05/03.7831/2021,2000,g  7.0,4.0
# From MPEC 2022-M88
C/2021 A7 (NEOWISE),e,78.1499,154.5162,356.0353,3422,0.0000049,0.99942517,0.0000,07/15.2614/2021,2000,g 10.0,4.0
# From MPEC 2022-K19
C/2021 A9 (PANSTARRS),h,12/01.3720/2023,158.0234,314.8433,211.4524,1.003233,7.760257,2000,6.0,4.0
# From MPEC 2021-N06
C/2021 A10 (NEOWISE),e,151.9078,188.6556,82.3902,90.75028,0.0011401,0.98608063,0.0000,03/15.3147/2021,2000,g 19.0,4.0
# From MPEC 2022-L66
C/2021 B2 (PANSTARRS),e,38.0885,120.5457,334.9645,352.3985,0.0001490,0.99287043,0.0000,05/04.2801/2021,2000,g 14.0,4.0
# From MPEC 2021-N06
C/2021 B3 (NEOWISE),e,119.4812,67.2853,293.5493,34.72351,0.0048169,0.93778420,2.5057,08/13.0/2022,2000,g 13.5,4.0
# From MPEC 2022-ED3
C/2021 C1 (Rankin),e,143.0454,186.8993,336.2821,47845,0.0000001,0.99992727,0.0000,12/07.0626/2020,2000,g 11.5,4.0
# From MPEC 2021-U31
P/2021 C2 (PANSTARRS),e,21.9307,66.4706,78.7550,9.534501,0.0334778,0.48723090,17.9165,08/13.0/2022,2000,g 12.0,4.0
# From MPEC 2021-N06
C/2021 C3 (Catalina),e,122.1642,181.9281,357.1126,62.65109,0.0019875,0.96368186,1.0865,08/13.0/2022,2000,g 14.0,4.0
# From MPEC 2022-M88
C/2021 C4 (ATLAS),e,132.8530,194.2772,320.2257,105307,0.0000000,0.99995723,0.0000,01/17.1131/2021,2000,g  9.0,4.0
# From MPEC 2022-O01
C/2021 C5 (PANSTARRS),e,50.7827,323.6878,270.9201,3186,0.0000055,0.99898236,0.0000,02/11.0735/2023,2000,g  9.0,4.0
# From MPEC 2022-F14
C/2021 C6 (Lemmon),h,11/13.2660/2021,164.6257,332.1550,203.5518,1.001307,3.271139,2000,12.0,4.0
# From MPEC 2022-F14
C/2021 D1 (SWAN),e,31.4487,311.2620,72.2468,98.95740,0.0010012,0.99088625,0.0000,02/27.6799/2021,2000,g 13.0,4.0
# From MPEC 2022-P82
C/2021 D2 (ZTF),h,02/03.9840/2022,83.8270,305.6805,125.0289,1.001653,2.946287,2000,9.0,4.0
# From MPEC 2021-N06
A/2021 E2,e,167.4883,190.8228,342.4338,232.8781,0.0002773,0.99018078,0.0000,12/10.4584/2020,2000,g 15.0,2.0
# From MPEC 2022-OB6
C/2021 E3 (ZTF),h,06/11.9122/2022,112.5550,104.4693,228.8512,1.000901,1.777386,2000,8.5,4.0
# From MPEC 2022-M88
A/2021 E4,e,116.3615,171.1740,48.2706,651.3421,0.0000593,0.99282103,0.0000,04/25.2696/2022,2000,g 13.5,2.0
# From MPEC 2022-PB4
C/2021 F1 (Lemmon-PANSTARRS),e,107.3261,203.4527,146.8204,234.2183,0.0002750,0.99575000,0.0000,04/06.8710/2022,2000,g 13.5,4.0
# From MPEC 2021-J72
C/2021 G1 (Leonard),e,131.5570,270.6998,107.4666,74.81241,0.0015232,0.95424136,0.5893,08/13.0/2022,2000,g 14.0,4.0
# From MPEC 2022-L66
C/2021 G2 (ATLAS),e,48.4725,221.1068,343.3573,4149,0.0000037,0.99879967,0.0000,09/09.9459/2024,2000,g  5.5,4.0
# From MPEC 2022-M21
C/2021 G3 (PANSTARRS),h,10/18.4049/2021,102.8806,147.4160,10.6249,1.000781,5.180808,2000,10.5,4.0
# From MPEC 2021-Y10
P/2021 HS (PANSTARRS),e,12.1686,262.3898,46.0960,4.194509,0.1147314,0.81004123,42.6393,08/13.0/2022,2000,g 22.0,4.0
# From MPEC 2022-C56
C/2021 J1 (Maury-Attard),e,92.7208,88.3348,147.3336,26.42663,0.0072551,0.93411930,3.9146,08/13.0/2022,2000,g 15.5,4.0
# From MPEC 2022-M88
C/2021 J2 (PANSTARRS),e,156.2117,23.3320,172.0507,117.9979,0.0007689,0.96011571,0.2496,08/13.0/2022,2000,g 12.0,4.0
# From MPEC 2021-S45
P/2021 J3 (ATLAS),e,14.5402,111.1821,126.0482,8.940770,0.0368673,0.44979610,41.8416,08/13.0/2022,2000,g  7.0,4.0
# From MPEC 2022-O08
C/2021 K1 (ATLAS),e,16.2758,140.9022,184.2801,12.68918,0.0218049,0.80315289,10.1521,08/13.0/2022,2000,g 11.0,4.0
# From MPEC 2022-O01
C/2021 K2 (MASTER),h,09/09.4019/2021,100.8476,282.2462,343.3513,1.001086,5.467563,2000,8.0,4.0
# From MPEC 2022-L66
C/2021 K3 (Catalina),h,02/02.9777/2022,134.7753,114.4526,182.0299,1.002923,5.229696,2000,10.0,4.0
# From MPEC 2021-W31
P/2021 L2 (Leonard),e,21.0699,266.6569,51.5147,4.049819,0.1209346,0.52135929,46.5097,08/13.0/2022,2000,g 17.0,4.0
# From MPEC 2022-O01
C/2021 L3 (Borisov),h,02/13.7316/2022,78.5800,344.9698,91.5971,1.002233,8.457812,2000,6.0,4.0
# From MPEC 2022-OB6
P/2021 L4 (PANSTARRS),e,16.9604,243.2199,234.5273,3.165353,0.1750132,0.11847302,188.1055,08/13.0/2022,2000,g 13.5,4.0
# From MPEC 2021-P47
P/2021 N1 (ZTF),e,11.5035,301.1684,21.2089,2.977635,0.1918214,0.67665667,82.9576,08/13.0/2022,2000,g 19.0,4.0
# From MPEC 2022-GA9
P/2021 N2 (Fuls),e,13.0621,221.7408,177.3808,6.934226,0.0539768,0.45244482,14.7081,08/13.0/2022,2000,g  9.5,4.0
# From MPEC 2022-OB6
C/2021 N3 (PANSTARRS),e,26.7433,337.4940,304.7423,157.5698,0.0004983,0.96373672,0.3604,08/13.0/2022,2000,g  8.5,4.0
# From MPEC 2022-A21
C/2021 O1 (Nishimura),e,27.5806,41.6109,74.4338,2432,0.0000082,0.99967657,0.0000,08/13.9389/2021,2000,g 10.5,4.0
# From MPEC 2022-L66
C/2021 O3 (PANSTARRS),h,04/21.0463/2022,56.7939,189.0187,299.9857,1.000096,0.287325,2000,10.5,4.0
# From MPEC 2022-CN4
C/2021 P1 (PANSTARRS),e,51.6365,359.6763,40.4350,2859,0.0000064,0.99846985,0.0000,06/02.2158/2022,2000,g 11.0,4.0
# From MPEC 2022-PB4
C/2021 P2 (PANSTARRS),e,150.0613,32.0709,76.6480,3021,0.0000059,0.99832200,0.0000,01/22.4099/2023,2000,g  9.0,4.0
# From MPEC 2021-W31
P/2021 P3 (PANSTARRS),e,27.1617,358.2397,334.1148,4.413893,0.1062848,0.33942892,46.7204,08/13.0/2022,2000,g 14.0,4.0
# From MPEC 2022-P82
C/2021 P4 (ATLAS),e,56.3107,348.0945,175.8193,323.2598,0.0001696,0.99665763,0.0000,07/30.3679/2022,2000,g  9.5,4.0
# From MPEC 2022-GA9
C/2021 Q3 (ATLAS),e,77.7734,307.9063,114.0959,75.23898,0.0015102,0.93082581,0.3003,08/13.0/2022,2000,g  8.0,4.0
# From MPEC 2022-PB4
C/2021 Q4 (Fuls),h,06/09.7607/2023,71.4726,183.3342,146.9525,1.003288,7.565206,2000,6.0,4.0
# From MPEC 2022-C56
P/2021 Q5 (ATLAS),e,10.7352,239.7622,180.9063,3.286225,0.1654467,0.62438086,57.4990,08/13.0/2022,2000,g 15.0,4.0
# From MPEC 2022-N37
C/2021 Q6 (PANSTARRS),e,161.8475,133.5345,140.8722,9652,0.0000010,0.99909743,0.0000,03/22.5390/2024,2000,g  6.0,4.0
# From MPEC 2022-PB4
C/2021 QM45 (PANSTARRS),e,22.8224,354.5886,72.8040,351.6718,0.0001495,0.99211404,0.0000,08/13.4331/2022,2000,g 11.0,4.0
# From MPEC 2022-OB6
P/2021 R1 (PANSTARRS),e,5.5199,143.3875,220.3689,8.376753,0.0406528,0.41673900,9.6853,08/13.0/2022,2000,g 11.0,4.0
# From MPEC 2022-O08
C/2021 R2 (PANSTARRS),e,134.4801,16.2932,32.3885,2499,0.0000079,0.99707383,0.0000,12/26.1650/2021,2000,g  7.5,4.0
# From MPEC 2021-W31
P/2021 R3 (PANSTARRS),e,19.9267,304.2141,2.8488,3.774475,0.1344062,0.33131688,59.6210,08/13.0/2022,2000,g 16.0,4.0
# From MPEC 2021-W31
P/2021 R4 (Wierzchos),e,21.0395,321.2572,56.6481,5.618800,0.0740012,0.58597865,22.4238,08/13.0/2022,2000,g 16.0,4.0
# From MPEC 2022-CN4
P/2021 R5 (Rankin),e,7.8547,219.9596,167.3891,4.793605,0.0939098,0.30682009,19.9804,08/13.0/2022,2000,g 12.0,4.0
# From MPEC 2021-W31
P/2021 R6 (Groeller),e,34.9270,176.1141,220.7492,6.275135,0.0627003,0.59325209,17.8725,08/13.0/2022,2000,g 14.5,4.0
# From MPEC 2022-L66
